[{"OBJECT_NAME":"OBJECT A","OBJECT_ID":"2023-085A","EPOCH":"2026-03-09T21:42:39.504096","MEAN_MOTION":15.28003151,"ECCENTRICITY":0.00073195,"INCLINATION":97.4858,"RA_OF_ASC_NODE":178.2033,"ARG_OF_PERICENTER":32.2499,"MEAN_ANOMALY":327.9186,"EPHEMERIS_TYPE":0,"CLASSIFICATION_TYPE":"U","NORAD_CAT_ID":57004,"ELEMENT_SET_NO":999,"REV_AT_EPOCH":15139,"BSTAR":0.00063583858,"MEAN_MOTION_DOT":0.0001733,"MEAN_MOTION_DDOT":0},{"OBJECT_NAME":"STARLINK-33788","OBJECT_ID":"2025-076W","EPOCH":"2026-03-09T03:21:40.369248","MEAN_MOTION":15.27570501,"ECCENTRICITY":0.00023248,"INCLINATION":43.0042,"RA_OF_ASC_NODE":325.0311,"ARG_OF_PERICENTER":274.7693,"MEAN_ANOMALY":85.2893,"EPHEMERIS_TYPE":0,"CLASSIFICATION_TYPE":"U","NORAD_CAT_ID":63589,"ELEMENT_SET_NO":999,"REV_AT_EPOCH":5174,"BSTAR":0.001295238,"MEAN_MOTION_DOT":0.00035543,"MEAN_MOTION_DDOT":0}]
